start=new Date('2022-04-24T00:00:00.000Z').valueOf();
sats=[{"INCLINATION":"53.2188","TIME_SYSTEM":"UTC","MEAN_MOTION":"15.08846284","EPOCH":"2022-04-23T22:00:00.999936","REF_FRAME":"TEME","TLE_LINE1":"1 50846U 22001AV  22113.91667824 -.00032378  00000-0 -20250-2 0  9996","ELEMENT_SET_NO":"999","FILE":"3413170","OBJECT_TYPE":"PAYLOAD","EPHEMERIS_TYPE":"0","PERIAPSIS":"538.345","RCS_SIZE":"LARGE","PERIOD":"95.437","ARG_OF_PERICENTER":"38.9584","MEAN_ANOMALY":"345.1717","MEAN_MOTION_DOT":"-0.00032378","ECCENTRICITY":"0.00019970","GP_ID":"201891525","COUNTRY_CODE":"US","APOAPSIS":"541.108","OBJECT_NAME":"STARLINK-3308","MEAN_ELEMENT_THEORY":"SGP4","TLE_LINE2":"2 50846  53.2188  54.7588 0001997  38.9584 345.1717 15.08846284 17813","REV_AT_EPOCH":"1781","SEMIMAJOR_AXIS":"6917.861","OBJECT_ID":"2022-001AV","NORAD_CAT_ID":"50846","LAUNCH_DATE":"2022-01-06","DECAY_DATE":null,"RA_OF_ASC_NODE":"54.7588","CLASSIFICATION_TYPE":"U","BSTAR":"-0.00202500000000","MEAN_MOTION_DDOT":"0.0000000000000","CENTER_NAME":"EARTH","SITE":"AFETR"},{"PERIAPSIS":"538.184","EPHEMERIS_TYPE":"0","OBJECT_TYPE":"PAYLOAD","ELEMENT_SET_NO":"999","FILE":"3412883","MEAN_ANOMALY":"174.4444","MEAN_MOTION_DOT":"-0.00008553","ARG_OF_PERICENTER":"58.2720","PERIOD":"95.438","RCS_SIZE":"LARGE","MEAN_MOTION":"15.08840761","TIME_SYSTEM":"UTC","INCLINATION":"53.2153","TLE_LINE1":"1 50847U 22001AW  22113.58334491 -.00008553  00000-0 -51986-3 0  9990","REF_FRAME":"TEME","EPOCH":"2022-04-23T14:00:01.000224","LAUNCH_DATE":"2022-01-06","NORAD_CAT_ID":"50847","OBJECT_ID":"2022-001AW","SEMIMAJOR_AXIS":"6917.878","REV_AT_EPOCH":"356","SITE":"AFETR","CENTER_NAME":"EARTH","MEAN_MOTION_DDOT":"0.0000000000000","CLASSIFICATION_TYPE":"U","BSTAR":"-0.00051986000000","DECAY_DATE":null,"RA_OF_ASC_NODE":"56.2630","GP_ID":"201883291","ECCENTRICITY":"0.00022540","TLE_LINE2":"2 50847  53.2153  56.2630 0002254  58.2720 174.4444 15.08840761  3566","MEAN_ELEMENT_THEORY":"SGP4","OBJECT_NAME":"STARLINK-3319","COUNTRY_CODE":"US","APOAPSIS":"541.302"},{"PERIAPSIS":"538.188","EPHEMERIS_TYPE":"0","OBJECT_TYPE":"PAYLOAD","ELEMENT_SET_NO":"999","FILE":"3412883","MEAN_ANOMALY":"352.0313","MEAN_MOTION_DOT":"-0.00005061","ARG_OF_PERICENTER":"40.4972","PERIOD":"95.437","RCS_SIZE":"LARGE","MEAN_MOTION":"15.08841004","TIME_SYSTEM":"UTC","INCLINATION":"53.2182","TLE_LINE1":"1 50848U 22001AX  22113.58334491 -.00005061  00000-0 -30009-3 0  9995","REF_FRAME":"TEME","EPOCH":"2022-04-23T14:00:01.000224","NORAD_CAT_ID":"50848","LAUNCH_DATE":"2022-01-06","OBJECT_ID":"2022-001AX","SEMIMAJOR_AXIS":"6917.877","REV_AT_EPOCH":"357","SITE":"AFETR","CENTER_NAME":"EARTH","MEAN_MOTION_DDOT":"0.0000000000000","BSTAR":"-0.00030009000000","CLASSIFICATION_TYPE":"U","RA_OF_ASC_NODE":"56.2541","DECAY_DATE":null,"ECCENTRICITY":"0.00022470","GP_ID":"201884041","TLE_LINE2":"2 50848  53.2182  56.2541 0002247  40.4972 352.0313 15.08841004  3575","MEAN_ELEMENT_THEORY":"SGP4","OBJECT_NAME":"STARLINK-3315","COUNTRY_CODE":"US","APOAPSIS":"541.297"},{"MEAN_ANOMALY":"308.5088","MEAN_MOTION_DOT":"0.00000507","ARG_OF_PERICENTER":"35.6281","PERIOD":"95.437","RCS_SIZE":"LARGE","PERIAPSIS":"538.340","EPHEMERIS_TYPE":"0","OBJECT_TYPE":"PAYLOAD","ELEMENT_SET_NO":"999","FILE":"3413178","TLE_LINE1":"1 50849U 22001AY  22113.91667824  .00000507  00000-0  49986-4 0  9995","REF_FRAME":"TEME","EPOCH":"2022-04-23T22:00:00.999936","MEAN_MOTION":"15.08843877","TIME_SYSTEM":"UTC","INCLINATION":"53.2192","SITE":"AFETR","CENTER_NAME":"EARTH","MEAN_MOTION_DDOT":"0.0000000000000","BSTAR":"0.00004998600000","CLASSIFICATION_TYPE":"U","DECAY_DATE":null,"RA_OF_ASC_NODE":"54.7596","NORAD_CAT_ID":"50849","LAUNCH_DATE":"2022-01-06","OBJECT_ID":"2022-001AY","SEMIMAJOR_AXIS":"6917.869","REV_AT_EPOCH":"1773","TLE_LINE2":"2 50849  53.2192  54.7596 0002015  35.6281 308.5088 15.08843877 17730","MEAN_ELEMENT_THEORY":"SGP4","OBJECT_NAME":"STARLINK-3311","APOAPSIS":"541.127","COUNTRY_CODE":"US","GP_ID":"201891571","ECCENTRICITY":"0.00020150"},{"ECCENTRICITY":"0.00083940","GP_ID":"201882541","COUNTRY_CODE":"US","APOAPSIS":"355.596","OBJECT_NAME":"STARLINK-3312","MEAN_ELEMENT_THEORY":"SGP4","TLE_LINE2":"2 50850  53.2154  31.0445 0008394 276.7228 125.5694 15.73133815  3669","REV_AT_EPOCH":"366","SEMIMAJOR_AXIS":"6728.084","OBJECT_ID":"2022-001AZ","NORAD_CAT_ID":"50850","LAUNCH_DATE":"2022-01-06","DECAY_DATE":null,"RA_OF_ASC_NODE":"31.0445","CLASSIFICATION_TYPE":"U","BSTAR":"0.00078545000000","MEAN_MOTION_DDOT":"0.0000000000000","CENTER_NAME":"EARTH","SITE":"AFETR","INCLINATION":"53.2154","TIME_SYSTEM":"UTC","MEAN_MOTION":"15.73133815","EPOCH":"2022-04-23T14:00:01.000224","REF_FRAME":"TEME","TLE_LINE1":"1 50850U 22001AZ  22113.58334491  .00110963  00000-0  78545-3 0  9991","FILE":"3412883","ELEMENT_SET_NO":"999","OBJECT_TYPE":"PAYLOAD","EPHEMERIS_TYPE":"0","PERIAPSIS":"344.301","RCS_SIZE":"LARGE","PERIOD":"91.537","ARG_OF_PERICENTER":"276.7228","MEAN_ANOMALY":"125.5694","MEAN_MOTION_DOT":"0.00110963"},{"GP_ID":"201891574","ECCENTRICITY":"0.00020150","COUNTRY_CODE":"US","APOAPSIS":"541.119","TLE_LINE2":"2 50851  53.2186  54.7571 0002015  35.0121  29.1160 15.08846813 17815","OBJECT_NAME":"STARLINK-3314","MEAN_ELEMENT_THEORY":"SGP4","OBJECT_ID":"2022-001BA","LAUNCH_DATE":"2022-01-06","NORAD_CAT_ID":"50851","REV_AT_EPOCH":"1781","SEMIMAJOR_AXIS":"6917.860","CENTER_NAME":"EARTH","SITE":"AFETR","CLASSIFICATION_TYPE":"U","BSTAR":"-0.00000314480000","DECAY_DATE":null,"RA_OF_ASC_NODE":"54.7571","MEAN_MOTION_DDOT":"0.0000000000000","MEAN_MOTION":"15.08846813","INCLINATION":"53.2186","TIME_SYSTEM":"UTC","REF_FRAME":"TEME","TLE_LINE1":"1 50851U 22001BA  22113.91667824 -.00000338  00000-0 -31448-5 0  9997","EPOCH":"2022-04-23T22:00:00.999936","PERIAPSIS":"538.331","EPHEMERIS_TYPE":"0","FILE":"3413178","ELEMENT_SET_NO":"999","OBJECT_TYPE":"PAYLOAD","ARG_OF_PERICENTER":"35.0121","MEAN_MOTION_DOT":"-0.00000338","MEAN_ANOMALY":"29.1160","RCS_SIZE":"LARGE","PERIOD":"95.437"},{"TIME_SYSTEM":"UTC","INCLINATION":"53.2166","MEAN_MOTION":"15.42566103","EPOCH":"2022-04-23T14:00:01.000224","TLE_LINE1":"1 51104U 22005A   22113.58334491 -.00442494  00000-0 -10610-1 0  9994","REF_FRAME":"TEME","OBJECT_TYPE":"PAYLOAD","ELEMENT_SET_NO":"999","FILE":"3412883","EPHEMERIS_TYPE":"0","PERIAPSIS":"437.297","PERIOD":"93.351","RCS_SIZE":"LARGE","MEAN_ANOMALY":"190.5157","MEAN_MOTION_DOT":"-0.00442494","ARG_OF_PERICENTER":"44.2732","GP_ID":"201883316","ECCENTRICITY":"0.00018250","MEAN_ELEMENT_THEORY":"SGP4","OBJECT_NAME":"STARLINK-3366","TLE_LINE2":"2 51104  53.2166 169.3755 0001825  44.2732 190.5157 15.42566103  3644","COUNTRY_CODE":"US","APOAPSIS":"439.785","SEMIMAJOR_AXIS":"6816.676","REV_AT_EPOCH":"364","LAUNCH_DATE":"2022-01-19","NORAD_CAT_ID":"51104","OBJECT_ID":"2022-005A","MEAN_MOTION_DDOT":"0.0000000000000","DECAY_DATE":null,"RA_OF_ASC_NODE":"169.3755","CLASSIFICATION_TYPE":"U","BSTAR":"-0.01061000000000","SITE":"AFETR","CENTER_NAME":"EARTH"},{"ECCENTRICITY":"0.00015610","GP_ID":"201889164","TLE_LINE2":"2 51105  53.2175 167.8041 0001561  37.8319 311.6261 15.43125393 16214","MEAN_ELEMENT_THEORY":"SGP4","OBJECT_NAME":"STARLINK-3350","APOAPSIS":"437.958","COUNTRY_CODE":"US","LAUNCH_DATE":"2022-01-19","NORAD_CAT_ID":"51105","OBJECT_ID":"2022-005B","SEMIMAJOR_AXIS":"6815.029","REV_AT_EPOCH":"1621","SITE":"AFETR","CENTER_NAME":"EARTH","MEAN_MOTION_DDOT":"0.0000000000000","BSTAR":"-0.01547300000000","CLASSIFICATION_TYPE":"U","DECAY_DATE":null,"RA_OF_ASC_NODE":"167.8041","MEAN_MOTION":"15.43125393","TIME_SYSTEM":"UTC","INCLINATION":"53.2175","TLE_LINE1":"1 51105U 22005B   22113.91667824 -.00640806  00000-0 -15473-1 0  9990","REF_FRAME":"TEME","EPOCH":"2022-04-23T22:00:00.999936","PERIAPSIS":"435.830","EPHEMERIS_TYPE":"0","OBJECT_TYPE":"PAYLOAD","FILE":"3413054","ELEMENT_SET_NO":"999","MEAN_ANOMALY":"311.6261","MEAN_MOTION_DOT":"-0.00640806","ARG_OF_PERICENTER":"37.8319","PERIOD":"93.317","RCS_SIZE":"LARGE"},{"TLE_LINE1":"1 51106U 22005C   22113.58334491 -.00468012  00000-0 -11471-1 0  9996","REF_FRAME":"TEME","EPOCH":"2022-04-23T14:00:01.000224","MEAN_MOTION":"15.42012562","TIME_SYSTEM":"UTC","INCLINATION":"53.2164","MEAN_ANOMALY":"148.9428","MEAN_MOTION_DOT":"-0.00468012","ARG_OF_PERICENTER":"36.3753","PERIOD":"93.384","RCS_SIZE":"LARGE","PERIAPSIS":"438.924","EPHEMERIS_TYPE":"0","OBJECT_TYPE":"PAYLOAD","ELEMENT_SET_NO":"999","FILE":"3412883","TLE_LINE2":"2 51106  53.2164 169.3771 0001831  36.3753 148.9428 15.42012562  3658","OBJECT_NAME":"STARLINK-3176","MEAN_ELEMENT_THEORY":"SGP4","APOAPSIS":"441.421","COUNTRY_CODE":"US","GP_ID":"201882316","ECCENTRICITY":"0.00018310","SITE":"AFETR","CENTER_NAME":"EARTH","MEAN_MOTION_DDOT":"0.0000000000000","CLASSIFICATION_TYPE":"U","BSTAR":"-0.01147100000000","RA_OF_ASC_NODE":"169.3771","DECAY_DATE":null,"NORAD_CAT_ID":"51106","LAUNCH_DATE":"2022-01-19","OBJECT_ID":"2022-005C","SEMIMAJOR_AXIS":"6818.307","REV_AT_EPOCH":"365"},{"EPOCH":"2022-04-23T14:00:01.000224","TLE_LINE1":"1 51107U 22005D   22113.58334491 -.00652299  00000-0 -42035-1 0  9999","REF_FRAME":"TEME","TIME_SYSTEM":"UTC","INCLINATION":"53.2175","MEAN_MOTION":"15.10275422","PERIOD":"95.347","RCS_SIZE":"LARGE","MEAN_MOTION_DOT":"-0.00652299","MEAN_ANOMALY":"146.2963","ARG_OF_PERICENTER":"58.3012","OBJECT_TYPE":"PAYLOAD","ELEMENT_SET_NO":"999","FILE":"3412883","EPHEMERIS_TYPE":"0","PERIAPSIS":"534.116","MEAN_ELEMENT_THEORY":"SGP4","OBJECT_NAME":"STARLINK-3368","TLE_LINE2":"2 51107  53.2175 176.2623 0001802  58.3012 146.2963 15.10275422  3605","COUNTRY_CODE":"US","APOAPSIS":"536.607","GP_ID":"201882566","ECCENTRICITY":"0.00018020","MEAN_MOTION_DDOT":"0.0000000000000","DECAY_DATE":null,"RA_OF_ASC_NODE":"176.2623","CLASSIFICATION_TYPE":"U","BSTAR":"-0.04203500000000","SITE":"AFETR","CENTER_NAME":"EARTH","SEMIMAJOR_AXIS":"6913.496","REV_AT_EPOCH":"360","NORAD_CAT_ID":"51107","LAUNCH_DATE":"2022-01-19","OBJECT_ID":"2022-005D"}];
